     2.10           N: GPS NAV DATA                         RINEX VERSION / TYPE
teqc  2008Oct2      gpsops              20090118 00:09:56UTCPGM / RUN BY / DATE
Linux 2.4.20-8|Pentium IV|gcc -static|Linux|486/DX+         COMMENT
soc2rnx ver 1.20    gpsops              18-Jan-2009 00:09:48COMMENT
Forced Modulo Decimation to 30 seconds                      COMMENT
GLPS                                    MARKER NAME         COMMENT
42005M002                               MARKER NUMBER       COMMENT
-33801.4662 -6377516.5323 -82154.3508                       COMMENT
                                                            COMMENT
This data is provided as a public service by NASA/JPL.      COMMENT
No warranty is expressed or implied regarding suitability   COMMENT
for use.  For further information, contact:                 COMMENT
Dave Stowers, NASA/JPL m/s 238-600                          COMMENT
4800 Oak Grove Drive, Pasadena CA 91109 USA                 COMMENT
                                                            END OF HEADER
 5 09  1 17 20  0  0.0-5.585826002061D-04-5.456968210638D-11 0.000000000000D+00
    9.900000000000D+01-3.256250000000D+01 4.993422281795D-09 2.304105712029D+00
   -1.743435859680D-06 9.380499948747D-03 5.809590220451D-06 5.153631319046D+03
    5.904000000000D+05 1.043081283569D-07-2.065842620237D-01-1.322478055954D-07
    9.451473635129D-01 2.575312500000D+02 1.296354717920D+00-8.183912321369D-09
    1.600066649198D-10 1.000000000000D+00 1.514000000000D+03 0.000000000000D+00
    2.800000000000D+00 0.000000000000D+00-4.190951585770D-09 9.900000000000D+01
    5.832000000000D+05
 9 09  1 17 20  0  0.0 3.550900146365D-05 1.932676241267D-12 0.000000000000D+00
    6.500000000000D+01-1.240625000000D+01 4.006595462212D-09-2.877811077137D+00
   -6.537884473801D-07 2.013218775392D-02 7.787719368935D-06 5.153654130936D+03
    5.904000000000D+05 2.030283212662D-07-1.194033544656D+00 0.000000000000D+00
    9.744514588432D-01 2.331875000000D+02 1.457394301020D+00-7.509241361473D-09
    3.242992226500D-10 1.000000000000D+00 1.514000000000D+03 0.000000000000D+00
    2.000000000000D+00 0.000000000000D+00-5.587935447693D-09 6.500000000000D+01
    5.832000000000D+05
10 09  1 17 19 59 44.0-9.663868695498D-06-5.684341886081D-13 0.000000000000D+00
    4.800000000000D+01 3.112500000000D+01 4.687695261324D-09 7.519565963419D-01
    1.894310116768D-06 8.470375905745D-03 4.500150680542D-06 5.153772462845D+03
    5.903840000000D+05-1.676380634308D-08 3.054300040679D+00 1.080334186554D-07
    9.604360380161D-01 2.905312500000D+02 5.804721029245D-01-8.363205503935D-09
   -2.460816788611D-10 1.000000000000D+00 1.514000000000D+03 0.000000000000D+00
    2.000000000000D+00 0.000000000000D+00-2.793967723846D-09 4.800000000000D+01
    5.832000000000D+05
12 09  1 17 20  0  0.0-3.246711567044D-04 3.410605131648D-12 0.000000000000D+00
    3.100000000000D+01-3.309375000000D+01 4.589834042154D-09-1.740189382787D+00
   -1.640990376472D-06 3.127204603516D-03 6.360933184624D-06 5.153731651306D+03
    5.904000000000D+05-6.519258022308D-08-1.078307290227D-01 1.490116119385D-08
    9.661460735306D-01 2.606562500000D+02-8.240646462402D-01-8.091765625946D-09
    1.307197307158D-10 1.000000000000D+00 1.514000000000D+03 0.000000000000D+00
    2.000000000000D+00 0.000000000000D+00-1.164153218269D-08 3.100000000000D+01
    5.832000000000D+05
15 09  1 17 20  0  0.0-2.436093054712D-04-5.570655048359D-12 0.000000000000D+00
    1.550000000000D+02-3.609375000000D+01 4.494115769389D-09 7.089853746467D-01
   -2.013519406319D-06 1.366092241369D-03 6.947666406631D-06 5.153569435120D+03
    5.904000000000D+05 5.587935447693D-09-2.220003227520D+00-5.587935447693D-09
    9.570938875564D-01 2.430937500000D+02-8.097989274444D-01-8.152839598494D-09
   -1.892935991239D-10 1.000000000000D+00 1.514000000000D+03 0.000000000000D+00
    2.000000000000D+00 0.000000000000D+00-9.778887033463D-09 1.550000000000D+02
    5.832000000000D+05
17 09  1 17 20  0  0.0 4.454515874386D-05 1.023181539495D-12 0.000000000000D+00
    5.800000000000D+01-1.650000000000D+01 4.675551898361D-09 9.317310091021D-01
   -8.884817361832D-07 4.125579609536D-03 9.238719940186D-06 5.153631736755D+03
    5.904000000000D+05-3.725290298462D-08 9.504191277887D-01 5.215406417847D-08
    9.596126257977D-01 2.009687500000D+02-2.769131669838D+00-8.032120284336D-09
   -1.914365455291D-10 1.000000000000D+00 1.514000000000D+03 0.000000000000D+00
    2.000000000000D+00 0.000000000000D+00-1.024454832077D-08 5.800000000000D+01
    5.832000000000D+05
24 09  1 17 20  0  0.0 1.583457924426D-04 2.955857780762D-12 0.000000000000D+00
    6.400000000000D+01 7.518750000000D+01 4.753769442150D-09 2.030903642420D+00
    3.978610038757D-06 7.039861171506D-03 7.729977369308D-06 5.153667808533D+03
    5.904000000000D+05 4.656612873077D-08 2.033229572447D+00 1.061707735062D-07
    9.510564275691D-01 2.247812500000D+02-6.416305942840D-01-8.038549123551D-09
   -6.000249934494D-11 1.000000000000D+00 1.514000000000D+03 0.000000000000D+00
    2.800000000000D+00 0.000000000000D+00-1.396983861923D-09 6.400000000000D+01
    5.832000000000D+05
26 09  1 17 20  0  0.0 3.703590482473D-05 3.410605131648D-12 0.000000000000D+00
    1.150000000000D+02-2.834375000000D+01 3.788014928884D-09-8.025677014348D-01
   -1.287087798119D-06 1.946917269379D-02 7.113441824913D-06 5.153641969681D+03
    5.904000000000D+05 3.166496753693D-08-2.154957993965D+00 4.041939973831D-07
    9.931880176732D-01 2.587500000000D+02 9.657158483414D-01-7.998547457321D-09
   -1.717928701483D-10 1.000000000000D+00 1.514000000000D+03 0.000000000000D+00
    2.800000000000D+00 0.000000000000D+00-6.053596735001D-09 1.150000000000D+02
    5.832000000000D+05
28 09  1 17 20  0  0.0-2.374686300755D-05 0.000000000000D+00 0.000000000000D+00
    3.300000000000D+01-3.331250000000D+01 4.667337270474D-09 1.346792160008D+00
   -1.758337020874D-06 1.453716296237D-02 6.785616278648D-06 5.153636720657D+03
    5.904000000000D+05-3.483146429062D-07-8.273337458856D-02 2.048909664154D-08
    9.658715189171D-01 2.546250000000D+02-2.065735034316D+00-8.282845013741D-09
    9.678974596714D-11 1.000000000000D+00 1.514000000000D+03 0.000000000000D+00
    2.000000000000D+00 0.000000000000D+00-1.024454832077D-08 3.300000000000D+01
    5.832000000000D+05
30 09  1 17 20  0  0.0 1.204074360430D-04 2.273736754432D-12 0.000000000000D+00
    9.600000000000D+01-3.453125000000D+01 4.909847371994D-09 1.769091912956D+00
   -1.918524503708D-06 1.116633624770D-02 6.018206477165D-06 5.153647518158D+03
    5.904000000000D+05 1.117587089539D-08-1.534740539761D-01-2.998858690262D-07
    9.511000751929D-01 2.582187500000D+02 1.415005529917D+00-8.232128615486D-09
    1.678641350722D-10 1.000000000000D+00 1.514000000000D+03 0.000000000000D+00
    2.800000000000D+00 0.000000000000D+00-7.916241884232D-09 9.600000000000D+01
    5.839200000000D+05
18 09  1 17 20  0  0.0-9.214505553246D-05 3.637978807092D-12 0.000000000000D+00
    1.700000000000D+01 2.171875000000D+01 5.038781314038D-09 2.141342820209D+00
    1.022592186928D-06 9.888583328575D-03 4.272907972336D-06 5.153750572205D+03
    5.904000000000D+05-2.384185791016D-07 3.061703930521D+00-1.806765794754D-07
    9.444934435202D-01 2.905000000000D+02-2.436732260274D+00-8.454280726155D-09
   -1.350056235261D-10 1.000000000000D+00 1.514000000000D+03 0.000000000000D+00
    2.000000000000D+00 0.000000000000D+00-1.071020960808D-08 1.700000000000D+01
    5.859600000000D+05
29 09  1 17 20  0  0.0-1.740129664540D-05 2.728484105319D-12 0.000000000000D+00
    5.900000000000D+01-5.875000000000D+00 4.559475634747D-09-2.813652772777D+00
   -4.209578037262D-07 3.232418792322D-03 9.344890713692D-06 5.153755064011D+03
    5.904000000000D+05 5.960464477539D-08 9.586014290258D-01 9.685754776001D-08
    9.597890639584D-01 1.958750000000D+02-1.341524507995D+00-7.872470777150D-09
   -1.228622605635D-10 1.000000000000D+00 1.514000000000D+03 0.000000000000D+00
    2.000000000000D+00 0.000000000000D+00-8.847564458847D-09 5.900000000000D+01
    5.871300000000D+05
26 09  1 17 19 59 44.0 3.703963011503D-05 3.410605131648D-12 0.000000000000D+00
    1.000000000000D+00-2.834375000000D+01 3.788014928884D-09-8.049014156490D-01
   -1.287087798119D-06 1.946916908491D-02 7.113441824913D-06 5.153641965866D+03
    5.903840000000D+05 3.166496753693D-08-2.154957865228D+00 4.041939973831D-07
    9.931880337653D-01 2.587500000000D+02 9.657158571189D-01-7.998547457321D-09
   -1.717928701483D-10 1.000000000000D+00 1.514000000000D+03 0.000000000000D+00
    2.000000000000D+00 0.000000000000D+00-6.053596735001D-09 1.000000000000D+00
    5.874300000000D+05
 2 09  1 17 22  0  0.0 1.611639745533D-04-1.818989403546D-12 0.000000000000D+00
    6.500000000000D+01 5.384375000000D+01 5.108784229941D-09 9.211721872048D-01
    2.782791852951D-06 8.906211354770D-03 8.199363946915D-06 5.153603685379D+03
    5.976000000000D+05 1.806765794754D-07 1.970672257838D+00-9.313225746155D-09
    9.416210082603D-01 2.094375000000D+02 2.701089714429D+00-8.278916278665D-09
   -3.178703834345D-11 1.000000000000D+00 1.514000000000D+03 0.000000000000D+00
    2.000000000000D+00 0.000000000000D+00-1.722946763039D-08 6.500000000000D+01
    5.904000000000D+05
 5 09  1 17 22  0  0.0-5.589751526713D-04-5.445599526865D-11 0.000000000000D+00
    1.000000000000D+02-2.684375000000D+01 4.977350183757D-09-2.928889710367D+00
   -1.335516571999D-06 9.379538008943D-03 6.046146154404D-06 5.153633136749D+03
    5.976000000000D+05 1.396983861923D-07-2.066429484454D-01-3.911554813385D-08
    9.451485543282D-01 2.531875000000D+02 1.296374534609D+00-8.158911279975D-09
    1.675069773380D-10 1.000000000000D+00 1.514000000000D+03 0.000000000000D+00
    4.000000000000D+00 0.000000000000D+00-4.190951585770D-09 1.000000000000D+02
    5.904000000000D+05
